[{"OBJECT_NAME":"YAOGAN-40 03A","OBJECT_ID":"2025-199A","EPOCH":"2026-03-09T23:03:31.278816","MEAN_MOTION":14.26419606,"ECCENTRICITY":0.00148498,"INCLINATION":85.9829,"RA_OF_ASC_NODE":86.7514,"ARG_OF_PERICENTER":35.6299,"MEAN_ANOMALY":324.588,"EPHEMERIS_TYPE":0,"CLASSIFICATION_TYPE":"U","NORAD_CAT_ID":65544,"ELEMENT_SET_NO":999,"REV_AT_EPOCH":2627,"BSTAR":0.00017546994,"MEAN_MOTION_DOT":4.42e-6,"MEAN_MOTION_DDOT":0},{"OBJECT_NAME":"FENGYUN 1C DEB","OBJECT_ID":"1999-025CK","EPOCH":"2026-03-09T10:23:58.992288","MEAN_MOTION":14.01477023,"ECCENTRICITY":0.01444166,"INCLINATION":98.3582,"RA_OF_ASC_NODE":244.9441,"ARG_OF_PERICENTER":94.1937,"MEAN_ANOMALY":297.4018,"EPHEMERIS_TYPE":0,"CLASSIFICATION_TYPE":"U","NORAD_CAT_ID":29793,"ELEMENT_SET_NO":999,"REV_AT_EPOCH":97363,"BSTAR":0.0013875258,"MEAN_MOTION_DOT":2.259e-5,"MEAN_MOTION_DDOT":0}]
